OBJECT_NAME,OBJECT_ID,EPOCH,MEAN_MOTION,ECCENTRICITY,INCLINATION,RA_OF_ASC_NODE,ARG_OF_PERICENTER,MEAN_ANOMALY,EPHEMERIS_TYPE,CLASSIFICATION_TYPE,NORAD_CAT_ID,ELEMENT_SET_NO,REV_AT_EPOCH,BSTAR,MEAN_MOTION_DOT,MEAN_MOTION_DDOT
STARLINK-36446,2026-005J,2026-06-08T02:22:44.102784,15.27559353,.00018702,42.9953,87.3847,266.8272,93.2366,0,U,67412,999,2252,.6342815E-3,.17222E-3,0
STARLINK-36442,2026-005K,2026-06-07T02:24:28.600128,15.27614858,.0000862,43.0019,92.7857,144.0258,216.0652,0,U,67413,999,2237,.69345E-3,.18889E-3,0
STARLINK-36506,2026-005L,2026-06-07T02:31:52.605408,15.27616172,.0001488,43.0069,92.8227,113.9922,246.1085,0,U,67414,999,2237,.72399E-3,.19736E-3,0
STARLINK-36468,2026-005M,2026-06-07T12:54:10.723968,15.27581153,.00019223,43.0055,90.9116,284.9474,75.1164,0,U,67415,999,2243,.13694375E-3,.3508E-4,0
STARLINK-36487,2026-005N,2026-06-07T12:46:48.423360,15.27561423,.0000982,43.0033,90.8717,248.8475,111.2272,0,U,67416,999,2243,.7891904E-3,.21506E-3,0
STARLINK-36374,2026-005P,2026-06-08T02:35:41.466048,15.27578805,.00054115,42.9921,87.4480,282.8508,77.1738,0,U,67417,999,2252,.10810725E-2,.29615E-3,0
STARLINK-36455,2026-005Q,2026-06-08T02:24:35.103456,15.27589614,.00001612,43.0121,87.3871,359.4988,0.5864,0,U,67418,999,2252,.95223944E-3,.26041E-3,0
STARLINK-36424,2026-005R,2026-06-07T11:54:57.712320,15.27598808,.00022293,42.9960,90.5946,275.1440,84.9157,0,U,67419,999,2243,.75109054E-3,.20476E-3,0
STARLINK-35564,2026-005S,2026-06-08T02:31:58.978272,15.27584344,.00003803,43.0053,87.4233,13.2245,346.8617,0,U,67420,999,2252,.84827234E-3,.23157E-3,0
STARLINK-36431,2026-005T,2026-06-07T12:52:20.131104,15.27590635,.00008997,43.0025,90.9014,257.3207,102.7544,0,U,67421,999,2243,.78137535E-3,.21309E-3,0
STARLINK-36418,2026-005U,2026-06-07T02:18:55.071936,15.27604930,.0001422,43.0001,92.7530,267.3148,92.7541,0,U,67422,999,2237,.78155E-3,.21323E-3,0
STARLINK-36465,2026-005V,2026-06-07T12:41:13.070400,15.27609364,.00042697,43.0011,90.8436,261.1421,98.8948,0,U,67423,999,2243,.70540495E-3,.1922E-3,0
STARLINK-36362,2026-005W,2026-06-08T02:28:17.033088,15.27585692,.00006855,43.0143,87.4074,59.0830,301.0089,0,U,67424,999,2252,.90776621E-3,.24805E-3,0
STARLINK-36447,2026-005X,2026-06-08T02:17:11.171616,15.27569126,.00018917,42.9995,87.3527,277.3635,82.7002,0,U,67425,999,2252,.66211107E-3,.17996E-3,0
STARLINK-36146,2026-005Y,2026-06-07T12:59:43.160064,15.27575569,.00031566,43.0013,90.9338,255.0201,105.0302,0,U,67426,999,2242,.63500951E-3,.17252E-3,0
STARLINK-36459,2026-005Z,2026-06-07T12:48:38.407968,15.27580185,.00003931,43.0021,90.8781,256.4780,103.6028,0,U,67427,999,2242,.77799894E-3,.21208E-3,0
STARLINK-36464,2026-005AA,2026-06-08T02:19:01.963200,15.27593541,.00003474,43.0147,87.3582,135.0581,225.0299,0,U,67428,999,2251,.10300746E-2,.28203E-3,0
STARLINK-36513,2026-005AB,2026-06-07T12:02:21.920640,15.27579263,.00017413,42.9956,90.6283,271.1555,88.9098,0,U,67429,999,2242,.61941235E-3,.16822E-3,0
STARLINK-36515,2026-005AC,2026-06-08T00:00:04.000320,15.27577830,.00006677,43.0024,88.1115,259.2514,205.0455,0,U,67430,999,588,-.88391753E-4,-.2693E-4,0
STARLINK-36443,2026-005AD,2026-06-07T02:26:19.544640,15.27611805,.0000704,43.0012,92.7864,268.7343,91.3428,0,U,67431,999,2237,.94865E-3,.2596E-3,0
STARLINK-36460,2026-005AE,2026-06-06T02:31:59.722176,15.27589957,.00014311,43.0020,99.0721,268.2395,91.8292,0,U,67432,999,2220,.15074707E-2,.41466E-3,0
STARLINK-36542,2026-008A,2026-06-08T00:26:51.320256,15.27562573,.00002588,43.0027,55.3839,227.7227,132.3603,0,U,67445,999,2338,.10873869E-2,.29765E-3,0
STARLINK-36539,2026-008B,2026-06-07T10:39:45.489600,15.27571870,.00018239,43.0080,58.8096,278.5457,81.5188,0,U,67446,999,2329,.91147683E-3,.24898E-3,0
STARLINK-36440,2026-008C,2026-06-07T10:45:06.414624,15.27593752,.00002442,43.0048,57.9615,12.9235,347.1623,0,U,67447,999,2330,.76807954E-3,.20943E-3,0
STARLINK-36423,2026-008D,2026-06-07T23:49:49.086336,15.27586734,.00025776,43.0019,55.1878,284.0547,76.0018,0,U,67448,999,2338,.71677529E-3,.19519E-3,0
STARLINK-36519,2026-008E,2026-06-07T10:04:36.068160,15.27578396,.00017533,42.9943,58.6189,270.3482,89.7169,0,U,67449,999,2329,.76577233E-3,.20869E-3,0
STARLINK-36525,2026-008F,2026-06-08T00:06:28.340352,15.27574857,.00010148,43.0019,55.2695,247.8894,112.1850,0,U,67450,999,2338,.97658167E-3,.26704E-3,0
STARLINK-36511,2026-008G,2026-06-08T00:32:22.642656,15.27601010,.0002066,43.0010,55.4045,89.0100,271.0989,0,U,67451,999,2338,.72259287E-3,.19688E-3,0
STARLINK-36524,2026-008H,2026-06-07T10:36:03.798432,15.27586818,.00019703,43.0036,58.7904,284.0567,76.0065,0,U,67452,999,2329,.70744917E-3,.1926E-3,0
STARLINK-36518,2026-008J,2026-06-08T00:13:52.178880,15.27586439,.00004705,43.0033,55.2925,188.4648,171.6196,0,U,67453,999,2338,.9982334E-3,.27314E-3,0
