STARLINK-36446          
1 67412U 26005J   26159.09912156  .00017222  00000+0  63428-3 0  9998
2 67412  42.9953  87.3847 0001870 266.8272  93.2366 15.27559353 22525
STARLINK-36442          
1 67413U 26005K   26158.10033102  .00018889  00000+0  69345-3 0  9999
2 67413  43.0019  92.7857 0000862 144.0258 216.0652 15.27614858 22371
STARLINK-36506          
1 67414U 26005L   26158.10546997  .00019736  00000+0  72399-3 0  9996
2 67414  43.0069  92.8227 0001488 113.9922 246.1085 15.27616172 22372
STARLINK-36468          
1 67415U 26005M   26158.53762412  .00003508  00000+0  13694-3 0  9999
2 67415  43.0055  90.9116 0001922 284.9474  75.1164 15.27581153 22433
STARLINK-36487          
1 67416U 26005N   26158.53250490  .00021506  00000+0  78919-3 0  9997
2 67416  43.0033  90.8717 0000982 248.8475 111.2272 15.27561423 22431
STARLINK-36374          
1 67417U 26005P   26159.10811882  .00029615  00000+0  10811-2 0  9995
2 67417  42.9921  87.4480 0005411 282.8508  77.1738 15.27578805 22521
STARLINK-36455          
1 67418U 26005Q   26159.10040629  .00026041  00000+0  95224-3 0  9991
2 67418  43.0121  87.3871 0000161 359.4988   0.5864 15.27589614 22529
STARLINK-36424          
1 67419U 26005R   26158.49650130  .00020476  00000+0  75109-3 0  9993
2 67419  42.9960  90.5946 0002229 275.1440  84.9157 15.27598808 22438
STARLINK-35564          
1 67420U 26005S   26159.10554373  .00023157  00000+0  84827-3 0  9992
2 67420  43.0053  87.4233 0000380  13.2245 346.8617 15.27584344 22520
STARLINK-36431          
1 67421U 26005T   26158.53634411  .00021309  00000+0  78138-3 0  9996
2 67421  43.0025  90.9014 0000899 257.3207 102.7544 15.27590635 22438
STARLINK-36418          
1 67422U 26005U   26158.09647074  .00021323  00000+0  78155-3 0  9992
2 67422  43.0001  92.7530 0001422 267.3148  92.7541 15.27604930 22376
STARLINK-36465          
1 67423U 26005V   26158.52862350  .00019220  00000+0  70540-3 0  9990
2 67423  43.0011  90.8436 0004269 261.1421  98.8948 15.27609364 22431
STARLINK-36362          
1 67424U 26005W   26159.10297492  .00024805  00000+0  90777-3 0  9994
2 67424  43.0143  87.4074 0000685  59.0830 301.0089 15.27585692 22526
STARLINK-36447          
1 67425U 26005X   26159.09526819  .00017996  00000+0  66211-3 0  9990
2 67425  42.9995  87.3527 0001891 277.3635  82.7002 15.27569126 22522
STARLINK-36146          
1 67426U 26005Y   26158.54147176  .00017252  00000+0  63501-3 0  9999
2 67426  43.0013  90.9338 0003156 255.0201 105.0302 15.27575569 22423
STARLINK-36459          
1 67427U 26005Z   26158.53377787  .00021208  00000+0  77800-3 0  9995
2 67427  43.0021  90.8781 0000393 256.4780 103.6028 15.27580185 22420
STARLINK-36464          
1 67428U 26005AA  26159.09655050  .00028203  00000+0  10301-2 0  9994
2 67428  43.0147  87.3582 0000347 135.0581 225.0299 15.27593541 22519
STARLINK-36513          
1 67429U 26005AB  26158.50164260  .00016822  00000+0  61941-3 0  9999
2 67429  42.9956  90.6283 0001741 271.1555  88.9098 15.27579263 22421
STARLINK-36515          
1 67430U 26005AC  26159.00004630 -.00002693  00000+0 -88392-4 0  9994
2 67430  43.0024  88.1115 0000667 259.2514 205.0455 15.27577830  5883
STARLINK-36443          
1 67431U 26005AD  26158.10161510  .00025960  00000+0  94865-3 0  9997
2 67431  43.0012  92.7864 0000704 268.7343  91.3428 15.27611805 22370
STARLINK-36460          
1 67432U 26005AE  26157.10555234  .00041466  00000+0  15075-2 0  9991
2 67432  43.0020  99.0721 0001431 268.2395  91.8292 15.27589957 22200
STARLINK-36542          
1 67445U 26008A   26159.01864954  .00029765  00000+0  10874-2 0  9992
2 67445  43.0027  55.3839 0000258 227.7227 132.3603 15.27562573 23388
STARLINK-36539          
1 67446U 26008B   26158.44427650  .00024898  00000+0  91148-3 0  9993
2 67446  43.0080  58.8096 0001823 278.5457  81.5188 15.27571870 23292
STARLINK-36440          
1 67447U 26008C   26158.44799091  .00020943  00000+0  76808-3 0  9998
2 67447  43.0048  57.9615 0000244  12.9235 347.1623 15.27593752 23304
STARLINK-36423          
1 67448U 26008D   26158.99292924  .00019519  00000+0  71678-3 0  9999
2 67448  43.0019  55.1878 0002577 284.0547  76.0018 15.27586734 23389
STARLINK-36519          
1 67449U 26008E   26158.41986190  .00020869  00000+0  76577-3 0  9995
2 67449  42.9943  58.6189 0001753 270.3482  89.7169 15.27578396 23291
STARLINK-36525          
1 67450U 26008F   26159.00449468  .00026704  00000+0  97658-3 0  9992
2 67450  43.0019  55.2695 0001014 247.8894 112.1850 15.27574857 23386
STARLINK-36511          
1 67451U 26008G   26159.02248429  .00019688  00000+0  72259-3 0  9992
2 67451  43.0010  55.4045 0002066  89.0100 271.0989 15.27601010 23383
STARLINK-36524          
1 67452U 26008H   26158.44171063  .00019260  00000+0  70745-3 0  9991
2 67452  43.0036  58.7904 0001970 284.0567  76.0065 15.27586818 23295
STARLINK-36518          
1 67453U 26008J   26159.00963170  .00027314  00000+0  99823-3 0  9990
2 67453  43.0033  55.2925 0000470 188.4648 171.6196 15.27586439 23385
